STARLINK-32867          
1 62855U 25022B   26068.48809498  .00020982  00000+0  71877-3 0  9992
2 62855  53.1612 130.2311 0001278  68.3612 291.7525 15.30189584 61878
TEVEL2-7                
1 63238U 25052AE  26068.66113295  .00019244  00000+0  69668-3 0  9998
2 63238  97.4054 324.3041 0008105 124.6830 235.5175 15.28414096 54803
